#aV2007 10 28  0  0   .00000000      96 DD+AD WGS84 FIT  NGA
## 1451       .00000000   900.00000000 54401  .0000000000000
+   31     1  2  3  4  5  6  7  8  9 10 11 12 13 14 15 16 17
+         18 19 20 21 22 23 24 25 26 27 28 30 31 32  0  0  0
+          0  0  0  0  0  0  0  0  0  0  0  0  0  0  0  0  0
+          0  0  0  0  0  0  0  0  0  0  0  0  0  0  0  0  0
+          0  0  0  0  0  0  0  0  0  0  0  0  0  0  0  0  0
++         0  0  0  0  0  0  0  0  0  0  0  0  0  0  0  0  0
++         0  0  0  0  0  0  0  0  0  0  0  0  0  0  0  0  0
++         0  0  0  0  0  0  0  0  0  0  0  0  0  0  0  0  0
++         0  0  0  0  0  0  0  0  0  0  0  0  0  0  0  0  0
++         0  0  0  0  0  0  0  0  0  0  0  0  0  0  0  0  0
%c cc cc ccc ccc cccc cccc cccc cccc ccccc ccccc ccccc ccccc
%c cc cc ccc ccc cccc cccc cccc cccc ccccc ccccc ccccc ccccc
%f  0.0000000  0.000000000  0.00000000000  0.000000000000000
%f  0.0000000  0.000000000  0.00000000000  0.000000000000000
%i    0    0    0    0      0      0      0      0         0
%i    0    0    0    0      0      0      0      0         0
/*      NGA, ST. LOUIS,MO.                                  
/*   EPHEMERIS COMPUTED FROM  3 DAYS OF DATA                
/* CCCCCCCCCCCCCCCCCCCCCCCCCCCCCCCCCCCCCCCCCCCCCCCCCCCCCCCCC
/* CCCCCCCCCCCCCCCCCCCCCCCCCCCCCCCCCCCCCCCCCCCCCCCCCCCCCCCCC
*  2007 10 28 17  0   .00000000                                                 
P  1  15752.071888   7427.194677 -19862.191074    162.933083                    
V  1   6457.664472  24783.453199  14157.192809       .030950                    
P  2 -20543.099809   7588.158900 -14996.871301    146.996250                    
V  2  10224.620178 -16069.500370 -22729.630383       .027847                    
P  3  15614.505522  -3814.061921  20935.902318    136.175549                    
V  3  11342.772525  24770.899700  -3558.062488       .053070                    
P  4 -16443.721816  -3875.982969 -20646.752606    -18.445221                    
V  4  16541.904337 -20101.727575  -9074.057616      -.039503                    
P  5  -2956.277031  15541.945340 -21589.894827    502.029166                    
V  5 -26743.187246  -2793.242110   1814.467241       .264583                    
P  6   6560.609349  25309.369065  -4405.232496    228.954031                    
V  6  -5549.781440  -4081.419706 -30483.758892      -.070206                    
P  7   8934.803339  24871.879799  -2120.319363    -36.960738                    
V  7  -4590.335495  -1412.066059 -31043.594317       .103188                    
P  8  -9578.218030 -11263.793232  21937.805806   -127.984111                    
V  8  19511.608237 -20192.608966  -2290.940879      -.011264                    
P  9 -14007.662932  22183.198070  -4038.989306     94.138950                    
V  9  -4791.483499   1811.268892  31501.491593       .016577                    
P 10 -24653.276054   1851.903778  10015.056483   -123.654427                    
V 10 -12057.258806  -4726.587950 -28156.009351      -.133029                    
P 11  10378.016027 -23973.460044  -3897.172672     25.387070                    
V 11   6874.056205  -1665.838648  29826.839856       .003195                    
P 12  -9952.024601  12937.726278 -20850.626562   -346.406718                    
V 12 -26094.053557  -5678.045554   8958.364365      -.012942                    
P 13  -5634.317909 -25758.330031  -3412.951645    217.143941                    
V 13   2827.934377   3509.076007 -32099.879225       .027573                    
P 14  14682.166607  18153.003368 -12659.121610   -323.792709                    
V 14   3555.032135  15825.973777  26518.302340       .025146                    
P 15  -9140.868927  15353.829796  19684.923398    -97.968473                    
V 15  -9697.259847 -23013.220647  13431.614356       .137566                    
P 16  26080.445185   1479.245119   5345.496554    122.005516                    
V 16   6038.405022   3764.222824 -30750.618550       .019616                    
P 17 -14889.978699 -18947.950489 -11307.820499     50.471751                    
V 17  -2450.188039 -14318.878542  27037.496040      -.011291                    
P 18  10627.019386  16039.815487  18621.096502   -228.769237                    
V 18 -22945.758708  -3771.554978  16142.695329       .021308                    
P 19  10262.289088 -14656.474013  19669.114543      3.857763                    
V 19   7965.623872  23566.642791  13612.564116       .021719                    
P 20   6392.914354 -14458.568529 -21441.051861    127.158959                    
V 20  26565.520341   5011.748122   4600.048379      -.006430                    
P 21    978.517779  19025.041783  18413.292267     77.138533                    
V 21 -17238.078137  15915.134815 -16241.330949      -.003632                    
P 22  21946.293219  11939.719430   9241.365627    201.712191                    
V 22 -11857.486289    145.599533  28431.060776       .010481                    
P 23   2234.786200 -22410.817415 -13957.700098    304.156427                    
V 23   7804.600270  15998.023124 -24782.236360       .035185                    
P 24 -10289.177606  22153.804828  10970.826440     41.861485                    
V 24 -11013.444156   8240.913694 -27162.890261       .029585                    
P 25   3167.469367 -22259.907037  14621.107739    469.965903                    
V 25  11803.640201 -13559.504031 -23645.849395       .067253                    
P 26 -10818.917586  11215.000326  20946.359545     76.925529                    
V 26  -9005.044809 -26214.517872   9718.526136       .124950                    
P 27  -2796.487794 -18536.437306  19390.323817    144.186508                    
V 27  15012.186665 -17867.404575 -15647.154307       .024747                    
P 28 -20027.300397 -13014.702315  12328.569186     -9.393880                    
V 28  15060.527520   1180.105093  26120.351500      -.006560                    
P 30   3857.427249  15991.281254 -21201.641351     50.511080                    
V 30 -26012.577942  -3136.921894  -7110.802404       .013744                    
P 31  17418.058427    719.907910 -19859.143347      4.445131                    
V 31 -15722.562765  20265.166107 -12852.658766      -.014104                    
P 32  25619.457401   6617.206815   -529.640777    117.676471                    
V 32    511.177791   2840.975767  32088.006259       .142743                    
EOF
